[{"OBJECT_NAME":"CLARITY-1","OBJECT_ID":"2025-052T","EPOCH":"2026-03-09T21:50:38.075424","MEAN_MOTION":15.81863851,"ECCENTRICITY":0.00041333,"INCLINATION":97.4224,"RA_OF_ASC_NODE":341.0548,"ARG_OF_PERICENTER":106.2264,"MEAN_ANOMALY":253.946,"EPHEMERIS_TYPE":0,"CLASSIFICATION_TYPE":"U","NORAD_CAT_ID":63227,"ELEMENT_SET_NO":999,"REV_AT_EPOCH":5587,"BSTAR":0.0005281172,"MEAN_MOTION_DOT":0.00107362,"MEAN_MOTION_DDOT":0},{"OBJECT_NAME":"STARLINK-36873","OBJECT_ID":"2026-037S","EPOCH":"2026-03-09T22:00:01.999584","MEAN_MOTION":15.82052447,"ECCENTRICITY":0.00018743,"INCLINATION":42.9987,"RA_OF_ASC_NODE":197.0146,"ARG_OF_PERICENTER":275.6136,"MEAN_ANOMALY":278.7188,"EPHEMERIS_TYPE":0,"CLASSIFICATION_TYPE":"U","NORAD_CAT_ID":67948,"ELEMENT_SET_NO":999,"REV_AT_EPOCH":323,"BSTAR":-2.755687e-6,"MEAN_MOTION_DOT":-1.115e-5,"MEAN_MOTION_DDOT":0}]
